UNKNOWN                 
1 87706U          25305.48686475  .00004019  00000+0  71749-3 0  9995
2 87706  98.6749 126.8772 0106691  35.8911  19.2585 14.63899830572483
UNKNOWN                 
1 87725U          25305.94645594  .00028003  00000+0  28321-2 0  9990
2 87725  82.8677 292.9165 0013138 163.6273 196.5374 14.90801544627834
UNKNOWN                 
1 87730U          25303.64088768  .00000141  00000+0  13262-3 0  9997
2 87730  82.9425 265.9887 0031135 122.4144 238.0030 13.74495175579411
UNKNOWN                 
1 87737U          25306.38475665  .00000051  00000+0  98943-4 0  9994
2 87737  99.3777 179.0512 0132508 295.1816  63.5640 13.72331159598328
UNKNOWN                 
1 87764U          25304.90515368  .00010461  00000+0  17983-2 0  9994
2 87764  65.6724 277.5302 0362727  98.8349 292.0943 14.33841912613126
UNKNOWN                 
1 87771U          25299.30102662  .00000097  00000+0  34653-3 0  9996
2 87771 100.7474 134.4305 0119667 109.7103 251.6965 13.19499102528835
UNKNOWN                 
1 87782U          25306.37247525  .00003262  00000+0  10871-1 0  9993
2 87782 102.3260 172.6827 0069903 313.0529  46.4728 13.00129701562740
UNKNOWN                 
1 87843U          25301.08839861  .00002346  00000+0  54026-2 0  9997
2 87843  99.6663  59.0873 0239245 113.6468 248.9957 13.16334315558155
UNKNOWN                 
1 87845U          25306.16638104  .00001682  00000+0  31980-2 0  9996
2 87845  98.8565 271.6379 0577514 347.3747  11.3398 12.88727439559986
UNKNOWN                 
1 87878U          25299.54209107  .00004309  00000+0  13670-2 0  9997
2 87878  99.1567  55.7518 0035552  46.7423 313.6721 14.40209006604508
UNKNOWN                 
1 87884U          25305.01491438  .00000818  00000+0  47186-3 0  9995
2 87884  98.7339  50.3260 0154237 185.3659 174.5863 14.05937999612505
UNKNOWN                 
1 87934U          25297.39866116  .00000121  00000+0  11385-3 0  9990
2 87934  82.9377 336.1830 0031334 170.6674 206.2457 13.73098446597549
