CCSDS_OMM_VERS = 2.0
CREATION_DATE  = 
ORIGINATOR     = 

OBJECT_NAME    = UNKNOWN
OBJECT_ID      = 
CENTER_NAME    = EARTH
REF_FRAME      = TEME
TIME_SYSTEM    = UTC
MEAN_ELEMENT_THEORY = SGP/SGP4

EPOCH          = 2025-11-01T11:41:05.114400
MEAN_MOTION    = 14.63899830
ECCENTRICITY   = .0106691
INCLINATION    = 98.6749
RA_OF_ASC_NODE = 126.8772
ARG_OF_PERICENTER = 35.8911
MEAN_ANOMALY   = 19.2585

EPHEMERIS_TYPE = 0
CLASSIFICATION_TYPE = U
NORAD_CAT_ID   = 87706
ELEMENT_SET_NO = 999
REV_AT_EPOCH   = 57248
BSTAR          = .71749E-3
MEAN_MOTION_DOT = .4019E-4
MEAN_MOTION_DDOT = 0

CCSDS_OMM_VERS = 2.0
CREATION_DATE  = 
ORIGINATOR     = 

OBJECT_NAME    = UNKNOWN
OBJECT_ID      = 
CENTER_NAME    = EARTH
REF_FRAME      = TEME
TIME_SYSTEM    = UTC
MEAN_ELEMENT_THEORY = SGP/SGP4

EPOCH          = 2025-11-01T22:42:53.793216
MEAN_MOTION    = 14.90801544
ECCENTRICITY   = .0013138
INCLINATION    = 82.8677
RA_OF_ASC_NODE = 292.9165
ARG_OF_PERICENTER = 163.6273
MEAN_ANOMALY   = 196.5374

EPHEMERIS_TYPE = 0
CLASSIFICATION_TYPE = U
NORAD_CAT_ID   = 87725
ELEMENT_SET_NO = 999
REV_AT_EPOCH   = 62783
BSTAR          = .28321E-2
MEAN_MOTION_DOT = .28003E-3
MEAN_MOTION_DDOT = 0

CCSDS_OMM_VERS = 2.0
CREATION_DATE  = 
ORIGINATOR     = 

OBJECT_NAME    = UNKNOWN
OBJECT_ID      = 
CENTER_NAME    = EARTH
REF_FRAME      = TEME
TIME_SYSTEM    = UTC
MEAN_ELEMENT_THEORY = SGP/SGP4

EPOCH          = 2025-10-30T15:22:52.695552
MEAN_MOTION    = 13.74495175
ECCENTRICITY   = .0031135
INCLINATION    = 82.9425
RA_OF_ASC_NODE = 265.9887
ARG_OF_PERICENTER = 122.4144
MEAN_ANOMALY   = 238.0030

EPHEMERIS_TYPE = 0
CLASSIFICATION_TYPE = U
NORAD_CAT_ID   = 87730
ELEMENT_SET_NO = 999
REV_AT_EPOCH   = 57941
BSTAR          = .13262E-3
MEAN_MOTION_DOT = .141E-5
MEAN_MOTION_DDOT = 0

CCSDS_OMM_VERS = 2.0
CREATION_DATE  = 
ORIGINATOR     = 

OBJECT_NAME    = UNKNOWN
OBJECT_ID      = 
CENTER_NAME    = EARTH
REF_FRAME      = TEME
TIME_SYSTEM    = UTC
MEAN_ELEMENT_THEORY = SGP/SGP4

EPOCH          = 2025-11-02T09:14:02.974560
MEAN_MOTION    = 13.72331159
ECCENTRICITY   = .0132508
INCLINATION    = 99.3777
RA_OF_ASC_NODE = 179.0512
ARG_OF_PERICENTER = 295.1816
MEAN_ANOMALY   = 63.5640

EPHEMERIS_TYPE = 0
CLASSIFICATION_TYPE = U
NORAD_CAT_ID   = 87737
ELEMENT_SET_NO = 999
REV_AT_EPOCH   = 59832
BSTAR          = .98943E-4
MEAN_MOTION_DOT = .51E-6
MEAN_MOTION_DDOT = 0

CCSDS_OMM_VERS = 2.0
CREATION_DATE  = 
ORIGINATOR     = 

OBJECT_NAME    = UNKNOWN
OBJECT_ID      = 
CENTER_NAME    = EARTH
REF_FRAME      = TEME
TIME_SYSTEM    = UTC
MEAN_ELEMENT_THEORY = SGP/SGP4

EPOCH          = 2025-10-31T21:43:25.277952
MEAN_MOTION    = 14.33841912
ECCENTRICITY   = .0362727
INCLINATION    = 65.6724
RA_OF_ASC_NODE = 277.5302
ARG_OF_PERICENTER = 98.8349
MEAN_ANOMALY   = 292.0943

EPHEMERIS_TYPE = 0
CLASSIFICATION_TYPE = U
NORAD_CAT_ID   = 87764
ELEMENT_SET_NO = 999
REV_AT_EPOCH   = 61312
BSTAR          = .17983E-2
MEAN_MOTION_DOT = .10461E-3
MEAN_MOTION_DDOT = 0

CCSDS_OMM_VERS = 2.0
CREATION_DATE  = 
ORIGINATOR     = 

OBJECT_NAME    = UNKNOWN
OBJECT_ID      = 
CENTER_NAME    = EARTH
REF_FRAME      = TEME
TIME_SYSTEM    = UTC
MEAN_ELEMENT_THEORY = SGP/SGP4

EPOCH          = 2025-10-26T07:13:28.699968
MEAN_MOTION    = 13.19499102
ECCENTRICITY   = .0119667
INCLINATION    = 100.7474
RA_OF_ASC_NODE = 134.4305
ARG_OF_PERICENTER = 109.7103
MEAN_ANOMALY   = 251.6965

EPHEMERIS_TYPE = 0
CLASSIFICATION_TYPE = U
NORAD_CAT_ID   = 87771
ELEMENT_SET_NO = 999
REV_AT_EPOCH   = 52883
BSTAR          = .34653E-3
MEAN_MOTION_DOT = .97E-6
MEAN_MOTION_DDOT = 0

CCSDS_OMM_VERS = 2.0
CREATION_DATE  = 
ORIGINATOR     = 

OBJECT_NAME    = UNKNOWN
OBJECT_ID      = 
CENTER_NAME    = EARTH
REF_FRAME      = TEME
TIME_SYSTEM    = UTC
MEAN_ELEMENT_THEORY = SGP/SGP4

EPOCH          = 2025-11-02T08:56:21.861600
MEAN_MOTION    = 13.00129701
ECCENTRICITY   = .0069903
INCLINATION    = 102.3260
RA_OF_ASC_NODE = 172.6827
ARG_OF_PERICENTER = 313.0529
MEAN_ANOMALY   = 46.4728

EPHEMERIS_TYPE = 0
CLASSIFICATION_TYPE = U
NORAD_CAT_ID   = 87782
ELEMENT_SET_NO = 999
REV_AT_EPOCH   = 56274
BSTAR          = .10871E-1
MEAN_MOTION_DOT = .3262E-4
MEAN_MOTION_DDOT = 0

CCSDS_OMM_VERS = 2.0
CREATION_DATE  = 
ORIGINATOR     = 

OBJECT_NAME    = UNKNOWN
OBJECT_ID      = 
CENTER_NAME    = EARTH
REF_FRAME      = TEME
TIME_SYSTEM    = UTC
MEAN_ELEMENT_THEORY = SGP/SGP4

EPOCH          = 2025-10-28T02:07:17.639904
MEAN_MOTION    = 13.16334315
ECCENTRICITY   = .0239245
INCLINATION    = 99.6663
RA_OF_ASC_NODE = 59.0873
ARG_OF_PERICENTER = 113.6468
MEAN_ANOMALY   = 248.9957

EPHEMERIS_TYPE = 0
CLASSIFICATION_TYPE = U
NORAD_CAT_ID   = 87843
ELEMENT_SET_NO = 999
REV_AT_EPOCH   = 55815
BSTAR          = .54026E-2
MEAN_MOTION_DOT = .2346E-4
MEAN_MOTION_DDOT = 0

CCSDS_OMM_VERS = 2.0
CREATION_DATE  = 
ORIGINATOR     = 

OBJECT_NAME    = UNKNOWN
OBJECT_ID      = 
CENTER_NAME    = EARTH
REF_FRAME      = TEME
TIME_SYSTEM    = UTC
MEAN_ELEMENT_THEORY = SGP/SGP4

EPOCH          = 2025-11-02T03:59:35.321856
MEAN_MOTION    = 12.88727439
ECCENTRICITY   = .0577514
INCLINATION    = 98.8565
RA_OF_ASC_NODE = 271.6379
ARG_OF_PERICENTER = 347.3747
MEAN_ANOMALY   = 11.3398

EPHEMERIS_TYPE = 0
CLASSIFICATION_TYPE = U
NORAD_CAT_ID   = 87845
ELEMENT_SET_NO = 999
REV_AT_EPOCH   = 55998
BSTAR          = .3198E-2
MEAN_MOTION_DOT = .1682E-4
MEAN_MOTION_DDOT = 0

CCSDS_OMM_VERS = 2.0
CREATION_DATE  = 
ORIGINATOR     = 

OBJECT_NAME    = UNKNOWN
OBJECT_ID      = 
CENTER_NAME    = EARTH
REF_FRAME      = TEME
TIME_SYSTEM    = UTC
MEAN_ELEMENT_THEORY = SGP/SGP4

EPOCH          = 2025-10-26T13:00:36.668448
MEAN_MOTION    = 14.40209006
ECCENTRICITY   = .0035552
INCLINATION    = 99.1567
RA_OF_ASC_NODE = 55.7518
ARG_OF_PERICENTER = 46.7423
MEAN_ANOMALY   = 313.6721

EPHEMERIS_TYPE = 0
CLASSIFICATION_TYPE = U
NORAD_CAT_ID   = 87878
ELEMENT_SET_NO = 999
REV_AT_EPOCH   = 60450
BSTAR          = .1367E-2
MEAN_MOTION_DOT = .4309E-4
MEAN_MOTION_DDOT = 0

CCSDS_OMM_VERS = 2.0
CREATION_DATE  = 
ORIGINATOR     = 

OBJECT_NAME    = UNKNOWN
OBJECT_ID      = 
CENTER_NAME    = EARTH
REF_FRAME      = TEME
TIME_SYSTEM    = UTC
MEAN_ELEMENT_THEORY = SGP/SGP4

EPOCH          = 2025-11-01T00:21:28.602432
MEAN_MOTION    = 14.05937999
ECCENTRICITY   = .0154237
INCLINATION    = 98.7339
RA_OF_ASC_NODE = 50.3260
ARG_OF_PERICENTER = 185.3659
MEAN_ANOMALY   = 174.5863

EPHEMERIS_TYPE = 0
CLASSIFICATION_TYPE = U
NORAD_CAT_ID   = 87884
ELEMENT_SET_NO = 999
REV_AT_EPOCH   = 61250
BSTAR          = .47186E-3
MEAN_MOTION_DOT = .818E-5
MEAN_MOTION_DDOT = 0

CCSDS_OMM_VERS = 2.0
CREATION_DATE  = 
ORIGINATOR     = 

OBJECT_NAME    = UNKNOWN
OBJECT_ID      = 
CENTER_NAME    = EARTH
REF_FRAME      = TEME
TIME_SYSTEM    = UTC
MEAN_ELEMENT_THEORY = SGP/SGP4

EPOCH          = 2025-10-24T09:34:04.324224
MEAN_MOTION    = 13.73098446
ECCENTRICITY   = .0031334
INCLINATION    = 82.9377
RA_OF_ASC_NODE = 336.1830
ARG_OF_PERICENTER = 170.6674
MEAN_ANOMALY   = 206.2457

EPHEMERIS_TYPE = 0
CLASSIFICATION_TYPE = U
NORAD_CAT_ID   = 87934
ELEMENT_SET_NO = 999
REV_AT_EPOCH   = 59754
BSTAR          = .11385E-3
MEAN_MOTION_DOT = .121E-5
MEAN_MOTION_DDOT = 0

